{
    "links": {
        "self": "http://www.neowsapp.com/rest/v1/neo/3715536?api_key=iIulBulltgU6a56xZRHN4H3l9WmuAYTsLGpBGhQ2"
    },
    "id": "3715536",
    "neo_reference_id": "3715536",
    "name": "(2015 GB6)",
    "designation": "2015 GB6",
    "nasa_jpl_url": "http://ssd.jpl.nasa.gov/sbdb.cgi?sstr=3715536",
    "absolute_magnitude_h": 26.5,
    "estimated_diameter": {
        "kilometers": {
            "estimated_diameter_min": 0.0133215567,
            "estimated_diameter_max": 0.0297879063
        },
        "meters": {
            "estimated_diameter_min": 13.3215566698,
            "estimated_diameter_max": 29.7879062798
        },
        "miles": {
            "estimated_diameter_min": 0.008277629,
            "estimated_diameter_max": 0.0185093411
        },
        "feet": {
            "estimated_diameter_min": 43.7058959846,
            "estimated_diameter_max": 97.7293544391
        }
    },
    "is_potentially_hazardous_asteroid": false,
    "close_approach_data": [
        {
            "close_approach_date": "2015-04-03",
            "close_approach_date_full": "2015-Apr-03 22:20",
            "epoch_date_close_approach": 1428099600000,
            "relative_velocity": {
                "kilometers_per_second": "11.8247338262",
                "kilometers_per_hour": "42569.041774208",
                "miles_per_hour": "26450.7470957572"
            },
            "miss_distance": {
                "astronomical": "0.0222525531",
                "lunar": "8.6562431559",
                "kilometers": "3328934.545821897",
                "miles": "2068504.0089682986"
            },
            "orbiting_body": "Earth"
        },
        {
            "close_approach_date": "2077-12-24",
            "close_approach_date_full": "2077-Dec-24 04:00",
            "epoch_date_close_approach": 3407544000000,
            "relative_velocity": {
                "kilometers_per_second": "11.9010980883",
                "kilometers_per_hour": "42843.9531178912",
                "miles_per_hour": "26621.5663137252"
            },
            "miss_distance": {
                "astronomical": "0.0323113277",
                "lunar": "12.5691064753",
                "kilometers": "4833705.800791999",
                "miles": "3003525.5092836262"
            },
            "orbiting_body": "Earth"
        }
    ],
    "orbital_data": {
        "orbit_id": "7",
        "orbit_determination_date": "2017-04-06 08:34:28",
        "first_observation_date": "2015-04-11",
        "last_observation_date": "2015-04-22",
        "data_arc_in_days": 11,
        "observations_used": 26,
        "orbit_uncertainty": "8",
        "minimum_orbit_intersection": ".00160941",
        "jupiter_tisserand_invariant": "3.755",
        "epoch_osculation": "2457130.5",
        "eccentricity": ".5392605635132",
        "semi_major_axis": "1.901240401899976",
        "inclination": ".9039264828343259",
        "ascending_node_longitude": "184.939689830787",
        "orbital_period": "957.5335038829102",
        "perihelion_distance": ".8759764313973321",
        "perihelion_argument": "316.26639369",
        "aphelion_distance": "2.926504372402619",
        "perihelion_time": "2457078.564766790318",
        "mean_anomaly": "19.52587964772854",
        "mean_motion": ".3759659568465834",
        "equinox": "J2000",
        "orbit_class": {
            "orbit_class_type": "APO",
            "orbit_class_description": "Near-Earth asteroid orbits which cross the Earth’s orbit similar to that of 1862 Apollo",
            "orbit_class_range": "a (semi-major axis) > 1.0 AU; q (perihelion) < 1.017 AU"
        }
    },
    "is_sentry_object": false
}